OBJECT_NAME,OBJECT_ID,EPOCH,MEAN_MOTION,ECCENTRICITY,INCLINATION,RA_OF_ASC_NODE,ARG_OF_PERICENTER,MEAN_ANOMALY,EPHEMERIS_TYPE,CLASSIFICATION_TYPE,NORAD_CAT_ID,ELEMENT_SET_NO,REV_AT_EPOCH,BSTAR,MEAN_MOTION_DOT,MEAN_MOTION_DDOT
GAOFEN-11 01,2018-063A,2026-06-13T07:30:31.139424,15.55188530,.00036695,97.1299,231.2034,12.9509,347.1839,0,U,43585,999,43974,.30660329E-3,.20627E-3,0
ICESAT-2,2018-070A,2026-06-13T03:51:31.204512,15.28214621,.00058257,92.0072,289.8913,115.1309,245.0546,0,U,43613,999,43184,.37799911E-3,.10396E-3,0
HYSIS,2018-096A,2026-06-13T06:52:45.188832,14.78689021,.00018738,97.9845,231.0653,110.7763,249.3649,0,U,43719,999,40684,.17766543E-3,.1251E-4,0
KAZSTSAT,2018-099AB,2026-06-13T02:16:15.006432,14.99854805,.00082621,97.4264,196.2091,80.4656,279.7502,0,U,43783,999,41069,.11453481E-3,.1364E-4,0
SAUDISAT 5A,2018-102A,2026-06-13T07:13:39.207936,15.28009666,.00107806,97.3075,225.9567,141.1711,219.0305,0,U,43831,999,41508,.21072142E-3,.5693E-4,0
SAUDISAT 5B,2018-102C,2026-06-13T07:41:43.957824,15.28268527,.00114326,97.3183,229.0384,143.3561,216.8463,0,U,43833,999,41520,.19865582E-3,.5407E-4,0
GAOFEN-10R,2019-066A,2026-06-13T07:23:35.305728,14.83052922,.00064261,98.0497,117.8591,138.1047,222.0659,0,U,44622,999,36180,.13828817E-3,.1071E-4,0
CARTOSAT-3,2019-081A,2026-06-13T06:30:49.169952,15.19256241,.00128072,97.4311,226.2009,161.0855,199.0858,0,U,44804,999,36287,.21578558E-3,.449E-4,0
GAOFEN-12 01,2019-082A,2026-06-13T07:04:29.919072,14.80455607,.00023789,97.8100,170.7770,75.0739,285.0737,0,U,44819,999,35351,.53506721E-4,.358E-5,0
CSG-1,2019-092A,2026-06-13T06:29:52.812960,14.82150097,.00014765,97.8888,347.9302,89.3870,270.7513,0,U,44873,999,35089,.53282847E-4,.372E-5,0
NEMO-HD,2020-061F,2026-06-13T05:49:21.093600,15.44519850,.0002439,97.1928,226.2351,85.4426,274.7102,0,U,46277,999,32137,.25183037E-3,.11599E-3,0
SENTINEL-6A,2020-086A,2026-06-13T06:14:03.511104,12.80929995,.0007941,66.0391,143.2097,270.2862,89.7243,0,U,46984,999,25982,.62744819E-4,-.47E-6,0
CAS500-1,2021-022A,2026-06-13T07:27:55.628064,15.20166734,.00040324,97.3915,59.6434,320.9558,39.1386,0,U,47932,999,29017,.31060749E-3,.6657E-4,0
GAOFEN-12 02,2021-026A,2026-06-13T07:19:49.374048,14.80293416,.00034687,97.9928,162.5019,238.5401,121.5472,0,U,48079,999,28118,.51815533E-4,.342E-5,0
PLEIADES NEO 3,2021-034A,2026-06-13T06:26:58.219296,14.81677804,.00013954,97.8934,239.0918,89.1802,270.9571,0,U,48268,999,27707,.79774395E-4,.576E-5,0
PLEIADES NEO 4,2021-073E,2026-06-13T07:15:35.816832,14.81682404,.00013843,97.8938,239.1208,89.2295,270.9077,0,U,49070,999,26079,.16897859E-3,.1278E-4,0
LANDSAT 9,2021-088A,2026-06-13T05:07:39.107712,14.57094419,.00014387,98.2281,234.4393,85.2988,274.8374,0,U,49260,999,25042,.74561697E-4,.29E-5,0
CSG-2,2022-008A,2026-06-13T07:18:28.518336,14.82152157,.00014453,97.8886,347.9588,84.3460,275.7918,0,U,51444,999,23601,-.14909099E-4,-.171E-5,0
GAOFEN-12 03,2022-069A,2026-06-13T06:24:32.376960,14.80030071,.00018939,97.8292,52.2365,105.0793,255.0628,0,U,52912,999,21403,.16034397E-3,.1163E-4,0
SWOT,2022-173A,2026-06-13T04:49:41.625408,14.00169149,.00002438,77.6108,40.6912,94.3111,265.8069,0,U,54754,999,17859,.67228799E-4,.97E-6,0
GAOFEN-12 04,2023-123A,2026-06-13T06:49:18.166656,14.80221834,.00017893,97.9128,82.3580,84.5441,275.5975,0,U,57654,999,15205,.12874038E-3,.927E-5,0
PARS 1,2024-039Q,2026-06-13T07:13:04.418976,15.45648349,.0011274,97.4814,145.0979,123.2459,236.9872,0,U,59065,999,12804,.23252277E-3,.11142E-3,0
RESURS-P 4,2024-061A,2026-06-13T06:42:00.525600,15.32110252,.0001891,97.2751,112.2459,131.2491,228.8914,0,U,59371,999,12316,.98093447E-4,.2965E-4,0
LEGION 1,2024-081A,2026-06-13T06:26:31.435296,15.16641619,.00098937,97.5023,242.1669,30.8955,329.2858,0,U,59625,999,11694,.17792801E-3,.3416E-4,0
LEGION 2,2024-081B,2026-06-13T05:34:36.653088,15.16620070,.00111459,97.5022,242.2289,357.9600,2.1585,0,U,59626,999,11694,.20825598E-3,.4009E-4,0
ALOS-4 (DAICHI-4),2024-123A,2026-06-13T07:16:57.343872,14.79468204,.00015753,97.9244,261.5317,98.0494,262.0896,0,U,60182,999,10530,.19416482E-3,.1399E-4,0
LEGION 3,2024-146A,2026-06-13T04:15:22.479264,15.16011099,.00072107,45.0026,52.0595,146.2418,213.8921,0,U,60452,999,10141,.19769019E-3,.3601E-4,0
LEGION 4,2024-146B,2026-06-13T05:54:40.001184,15.16002622,.00140693,44.9995,143.6006,287.7636,72.1707,0,U,60453,999,10027,.1770266E-3,.32E-4,0
SENTINEL-2C,2024-157A,2026-06-13T04:28:36.231744,14.30816729,.00010886,98.5691,239.0250,79.5050,280.6255,0,U,60989,999,9241,.48318708E-4,.83E-6,0
IONOSFERA-M 1,2024-199A,2026-06-13T06:07:58.567872,14.22753580,.00018449,98.7178,37.4692,115.4318,244.7051,0,U,61735,999,12714,.41274999E-4,.49E-6,0
