GAOFEN-11 01            
1 43585U 18063A   26164.31286041  .00020627  00000+0  30660-3 0  9991
2 43585  97.1299 231.2034 0003669  12.9509 347.1839 15.55188530439742
ICESAT-2                
1 43613U 18070A   26164.16077783  .00010396  00000+0  37800-3 0  9990
2 43613  92.0072 289.8913 0005825 115.1309 245.0546 15.28214621431847
HYSIS                   
1 43719U 18096A   26164.28663413  .00001251  00000+0  17767-3 0  9999
2 43719  97.9845 231.0653 0001873 110.7763 249.3649 14.78689021406847
KAZSTSAT                
1 43783U 18099AB  26164.09461813  .00001364  00000+0  11453-3 0  9993
2 43783  97.4264 196.2091 0008262  80.4656 279.7502 14.99854805410699
SAUDISAT 5A             
1 43831U 18102A   26164.30114824  .00005693  00000+0  21072-3 0  9990
2 43831  97.3075 225.9567 0010780 141.1711 219.0305 15.28009666415081
SAUDISAT 5B             
1 43833U 18102C   26164.32064766  .00005407  00000+0  19866-3 0  9994
2 43833  97.3183 229.0384 0011432 143.3561 216.8463 15.28268527415204
GAOFEN-10R              
1 44622U 19066A   26164.30804752  .00001071  00000+0  13829-3 0  9992
2 44622  98.0497 117.8591 0006426 138.1047 222.0659 14.83052922361801
CARTOSAT-3              
1 44804U 19081A   26164.27140243  .00004490  00000+0  21579-3 0  9994
2 44804  97.4311 226.2009 0012807 161.0855 199.0858 15.19256241362874
GAOFEN-12 01            
1 44819U 19082A   26164.29479073  .00000358  00000+0  53507-4 0  9995
2 44819  97.8100 170.7770 0002378  75.0739 285.0737 14.80455607353512
CSG-1                   
1 44873U 19092A   26164.27075015  .00000372  00000+0  53283-4 0  9999
2 44873  97.8888 347.9302 0001476  89.3870 270.7513 14.82150097350894
NEMO-HD                 
1 46277U 20061F   26164.24260525  .00011599  00000+0  25183-3 0  9996
2 46277  97.1928 226.2351 0002439  85.4426 274.7102 15.44519850321373
SENTINEL-6A             
1 46984U 20086A   26164.25976286 -.00000047  00000+0  62745-4 0  9990
2 46984  66.0391 143.2097 0007941 270.2862  89.7243 12.80929995259825
CAS500-1                
1 47932U 21022A   26164.31106051  .00006657  00000+0  31061-3 0  9995
2 47932  97.3915  59.6434 0004032 320.9558  39.1386 15.20166734290177
GAOFEN-12 02            
1 48079U 21026A   26164.30543257  .00000342  00000+0  51816-4 0  9990
2 48079  97.9928 162.5019 0003468 238.5401 121.5472 14.80293416281182
PLEIADES NEO 3          
1 48268U 21034A   26164.26872939  .00000576  00000+0  79774-4 0  9998
2 48268  97.8934 239.0918 0001395  89.1802 270.9571 14.81677804277078
PLEIADES NEO 4          
1 49070U 21073E   26164.30249788  .00001278  00000+0  16898-3 0  9995
2 49070  97.8938 239.1208 0001384  89.2295 270.9077 14.81682404260796
LANDSAT 9               
1 49260U 21088A   26164.21364708  .00000290  00000+0  74562-4 0  9998
2 49260  98.2281 234.4393 0001438  85.2988 274.8374 14.57094419250429
CSG-2                   
1 51444U 22008A   26164.30449674 -.00000171  00000+0 -14909-4 0  9993
2 51444  97.8886 347.9588 0001445  84.3460 275.7918 14.82152157236016
GAOFEN-12 03            
1 52912U 22069A   26164.26704140  .00001163  00000+0  16034-3 0  9998
2 52912  97.8292  52.2365 0001893 105.0793 255.0628 14.80030071214039
SWOT                    
1 54754U 22173A   26164.20117622  .00000097  00000+0  67229-4 0  9995
2 54754  77.6108  40.6912 0000243  94.3111 265.8069 14.00169149178597
GAOFEN-12 04            
1 57654U 23123A   26164.28423804  .00000927  00000+0  12874-3 0  9990
2 57654  97.9128  82.3580 0001789  84.5441 275.5975 14.80221834152058
PARS 1                  
1 59065U 24039Q   26164.30074559  .00011142  00000+0  23252-3 0  9990
2 59065  97.4814 145.0979 0011274 123.2459 236.9872 15.45648349128047
RESURS-P 4              
1 59371U 24061A   26164.27917275  .00002965  00000+0  98093-4 0  9991
2 59371  97.2751 112.2459 0001891 131.2491 228.8914 15.32110252123161
LEGION 1                
1 59625U 24081A   26164.26841939  .00003416  00000+0  17793-3 0  9996
2 59625  97.5023 242.1669 0009893  30.8955 329.2858 15.16641619116942
LEGION 2                
1 59626U 24081B   26164.23236867  .00004009  00000+0  20826-3 0  9992
2 59626  97.5022 242.2289 0011145 357.9600   2.1585 15.16620070116946
ALOS-4 (DAICHI-4)       
1 60182U 24123A   26164.30344148  .00001399  00000+0  19416-3 0  9990
2 60182  97.9244 261.5317 0001575  98.0494 262.0896 14.79468204105308
LEGION 3                
1 60452U 24146A   26164.17734351  .00003601  00000+0  19769-3 0  9998
2 60452  45.0026  52.0595 0007210 146.2418 213.8921 15.16011099101414
LEGION 4                
1 60453U 24146B   26164.24629631  .00003200  00000+0  17703-3 0  9992
2 60453  44.9995 143.6006 0014069 287.7636  72.1707 15.16002622100278
SENTINEL-2C             
1 60989U 24157A   26164.18653046  .00000083  00000+0  48319-4 0  9992
2 60989  98.5691 239.0250 0001088  79.5050 280.6255 14.30816729 92411
IONOSFERA-M 1           
1 61735U 24199A   26164.25553898  .00000049  00000+0  41275-4 0  9996
2 61735  98.7178  37.4692 0001844 115.4318 244.7051 14.22753580127140
